CTC2_L_00135016-03
1 46534U 22562SC  26037.47791667  .00000000  00000+0  00000-0 0  9993
2 46534  90.0000 180.0000 0000000   0.0000   0.0000 13.03091717    15
CTC2_L_00135016-04
1 46535U 25013WU  26037.47791667  .00000000  00000+0  00000-0 0  9998
2 46535  90.0000 180.0000 0000000   0.0000  90.0000 13.03091717    15
CTC2_L_00135017-01
1 46536U 23056VL  26037.47791667  .00000000  00000+0  00000-0 0  9994
2 46536  90.0000 192.0000 0000000   0.0000 192.0000 13.03091717    12
CTC2_L_00135017-02
1 46537U 24790RD  26037.47791667  .00000000  00000+0  00000-0 0  9991
2 46537  90.0000 192.0000 0000000   0.0000 282.0000 13.03091717    13
CTC2_L_00135017-03
1 46538U 23354MO  26037.47791667  .00000000  00000+0  00000-0 0  9997
2 46538  90.0000 192.0000 0000000   0.0000  12.0000 13.03091717    15
CTC2_L_00135017-04
1 46539U 25867HA  26037.47791667  .00000000  00000+0  00000-0 0  9999
2 46539  90.0000 192.0000 0000000   0.0000 102.0000 13.03091717    16
CTC2_L_00135018-01
1 46540U 25337PS  26037.47791667  .00000000  00000+0  00000-0 0  9993
2 46540  90.0000 204.0000 0000000   0.0000 204.0000 13.03091717    15
CTC2_L_00135018-02
1 46541U 26491UZ  26037.47791667  .00000000  00000+0  00000-0 0  9996
2 46541  90.0000 204.0000 0000000   0.0000 294.0000 13.03091717    15
CTC2_L_00135018-03
1 46542U 26387KT  26037.47791667  .00000000  00000+0  00000-0 0  9991
2 46542  90.0000 204.0000 0000000   0.0000  24.0000 13.03091717    17
CTC2_L_00135018-04
1 46543U 23747TN  26037.47791667  .00000000  00000+0  00000-0 0  9999
2 46543  90.0000 204.0000 0000000   0.0000 114.0000 13.03091717    18
CTC2_L_00135019-01
1 46544U 24361PX  26037.47791667  .00000000  00000+0  00000-0 0  9993
2 46544  90.0000 216.0000 0000000   0.0000 216.0000 13.03091717    15
CTC2_L_00135019-02
1 46545U 23712WD  26037.47791667  .00000000  00000+0  00000-0 0  9993
2 46545  90.0000 216.0000 0000000   0.0000 306.0000 13.03091717    16
CTC2_L_00135019-03
1 46546U 24473QB  26037.47791667  .00000000  00000+0  00000-0 0  9999
2 46546  90.0000 216.0000 0000000   0.0000  36.0000 13.03091717    17
CTC2_L_00135019-04
1 46547U 26660FF  26037.47791667  .00000000  00000+0  00000-0 0  9990
2 46547  90.0000 216.0000 0000000   0.0000 126.0000 13.03091717    18
CTC2_L_00135020-01
1 46548U 24138ZU  26037.47791667  .00000000  00000+0  00000-0 0  9999
2 46548  90.0000 228.0000 0000000   0.0000 228.0000 13.03091717    15
CTC2_L_00135020-02
1 46549U 26642RY  26037.47791667  .00000000  00000+0  00000-0 0  9992
2 46549  90.0000 228.0000 0000000   0.0000 318.0000 13.03091717    16
CTC2_L_00135020-03
1 46550U 22808RO  26037.47791667  .00000000  00000+0  00000-0 0  9994
2 46550  90.0000 228.0000 0000000   0.0000  48.0000 13.03091717    18
CTC2_L_00135020-04
1 46551U 24744VU  26037.47791667  .00000000  00000+0  00000-0 0  9996
2 46551  90.0000 228.0000 0000000   0.0000 138.0000 13.03091717    19
CTC2_L_00135021-01
1 46552U 25720EO  26037.47791667  .00000000  00000+0  00000-0 0  9992
2 46552  90.0000 240.0000 0000000   0.0000 240.0000 13.03091717    18
CTC2_L_00135021-02
1 46553U 22468ZN  26037.47791667  .00000000  00000+0  00000-0 0  9999
2 46553  90.0000 240.0000 0000000   0.0000 330.0000 13.03091717    19
CTC2_L_00135021-03
1 46554U 24481MH  26037.47791667  .00000000  00000+0  00000-0 0  9997
2 46554  90.0000 240.0000 0000000   0.0000  60.0000 13.03091717    10
CTC2_L_00135021-04
1 46555U 26902OL  26037.47791667  .00000000  00000+0  00000-0 0  9998
2 46555  90.0000 240.0000 0000000   0.0000 150.0000 13.03091717    11
CTC2_L_00135022-01
1 46556U 26838TN  26037.47791667  .00000000  00000+0  00000-0 0  9997
2 46556  90.0000 252.0000 0000000   0.0000 252.0000 13.03091717    18
CTC2_L_00135022-02
1 46557U 26358GU  26037.47791667  .00000000  00000+0  00000-0 0  9995
2 46557  90.0000 252.0000 0000000   0.0000 342.0000 13.03091717    19
CTC2_L_00135022-03
1 46558U 22580IH  26037.47791667  .00000000  00000+0  00000-0 0  9999
2 46558  90.0000 252.0000 0000000   0.0000  72.0000 13.03091717    10
CTC2_L_00135022-04
1 46559U 22770TE  26037.47791667  .00000000  00000+0  00000-0 0  9991
2 46559  90.0000 252.0000 0000000   0.0000 162.0000 13.03091717    11
CTC2_L_00135023-01
1 46560U 23563UI  26037.47791667  .00000000  00000+0  00000-0 0  9994
2 46560  90.0000 264.0000 0000000   0.0000 264.0000 13.03091717    19
CTC2_L_00135023-02
1 46561U 24337AL  26037.47791667  .00000000  00000+0  00000-0 0  9995
2 46561  90.0000 264.0000 0000000   0.0000 354.0000 13.03091717    10
CTC2_L_00135023-03
1 46562U 23766GX  26037.47791667  .00000000  00000+0  00000-0 0  9991
2 46562  90.0000 264.0000 0000000   0.0000  84.0000 13.03091717    11
CTC2_L_00135023-04
1 46563U 25818GK  26037.47791667  .00000000  00000+0  00000-0 0  9992
2 46563  90.0000 264.0000 0000000   0.0000 174.0000 13.03091717    12
CTC2_L_00135024-01
1 46564U 24980OA  26037.47791667  .00000000  00000+0  00000-0 0  9992
2 46564  90.0000 276.0000 0000000   0.0000 276.0000 13.03091717    19
CTC2_L_00135024-02
1 46565U 25735JM  26037.47791667  .00000000  00000+0  00000-0 0  9992
2 46565  90.0000 276.0000 0000000   0.0000   6.0000 13.03091717    11
CTC2_L_00135024-03
1 46566U 23180EC  26037.47791667  .00000000  00000+0  00000-0 0  9995
2 46566  90.0000 276.0000 0000000   0.0000  96.0000 13.03091717    11
CTC2_L_00135024-04
1 46567U 23743WZ  26037.47791667  .00000000  00000+0  00000-0 0  9991
2 46567  90.0000 276.0000 0000000   0.0000 186.0000 13.03091717    12
CTC2_L_00135025-01
1 46568U 23221TR  26037.47791667  .00000000  00000+0  00000-0 0  9993
2 46568  90.0000 288.0000 0000000   0.0000 288.0000 13.03091717    19
CTC2_L_00135025-02
1 46569U 26707NO  26037.47791667  .00000000  00000+0  00000-0 0  9996
2 46569  90.0000 288.0000 0000000   0.0000  18.0000 13.03091717    11
CTC2_L_00135025-03
1 46570U 25218VO  26037.47791667  .00000000  00000+0  00000-0 0  9994
2 46570  90.0000 288.0000 0000000   0.0000 108.0000 13.03091717    13
CTC2_L_00135025-04
1 46571U 24313TC  26037.47791667  .00000000  00000+0  00000-0 0  9990
2 46571  90.0000 288.0000 0000000   0.0000 198.0000 13.03091717    13
CTC2_L_00135026-01
1 46572U 23965KW  26037.47791667  .00000000  00000+0  00000-0 0  9993
2 46572  90.0000 300.0000 0000000   0.0000 300.0000 13.03091717    14
CTC2_L_00135026-02
1 46573U 24169HV  26037.47791667  .00000000  00000+0  00000-0 0  9991
2 46573  90.0000 300.0000 0000000   0.0000  30.0000 13.03091717    15
CTC2_L_00135026-03
1 46574U 25302GE  26037.47791667  .00000000  00000+0  00000-0 0  9992
2 46574  90.0000 300.0000 0000000   0.0000 120.0000 13.03091717    16
CTC2_L_00135026-04
1 46575U 26539WH  26037.47791667  .00000000  00000+0  00000-0 0  9996
2 46575  90.0000 300.0000 0000000   0.0000 210.0000 13.03091717    17
CTC2_L_00135027-01
1 46576U 23205PN  26037.47791667  .00000000  00000+0  00000-0 0  9994
2 46576  90.0000 312.0000 0000000   0.0000 312.0000 13.03091717    14
CTC2_L_00135027-02
1 46577U 24172VR  26037.47791667  .00000000  00000+0  00000-0 0  9999
2 46577  90.0000 312.0000 0000000   0.0000  42.0000 13.03091717    15
CTC2_L_00135027-03
1 46578U 23846ZO  26037.47791667  .00000000  00000+0  00000-0 0  9997
2 46578  90.0000 312.0000 0000000   0.0000 132.0000 13.03091717    16
CTC2_L_00135027-04
1 46579U 23302AS  26037.47791667  .00000000  00000+0  00000-0 0  9995
2 46579  90.0000 312.0000 0000000   0.0000 222.0000 13.03091717    17
CTC2_L_00135028-01
1 46580U 26164UV  26037.47791667  .00000000  00000+0  00000-0 0  9996
2 46580  90.0000 324.0000 0000000   0.0000 324.0000 13.03091717    15
CTC2_L_00135028-02
1 46581U 23624HI  26037.47791667  .00000000  00000+0  00000-0 0  9995
2 46581  90.0000 324.0000 0000000   0.0000  54.0000 13.03091717    16
CTC2_L_00135028-03
1 46582U 25834QG  26037.47791667  .00000000  00000+0  00000-0 0  9991
2 46582  90.0000 324.0000 0000000   0.0000 144.0000 13.03091717    17
CTC2_L_00135028-04
1 46583U 26778HU  26037.47791667  .00000000  00000+0  00000-0 0  9990
2 46583  90.0000 324.0000 0000000   0.0000 234.0000 13.03091717    18
CTC2_L_00135029-01
1 46584U 22320YU  26037.47791667  .00000000  00000+0  00000-0 0  9990
2 46584  90.0000 336.0000 0000000   0.0000 336.0000 13.03091717    15
CTC2_L_00135029-02
1 46585U 22148BS  26037.47791667  .00000000  00000+0  00000-0 0  9999
2 46585  90.0000 336.0000 0000000   0.0000  66.0000 13.03091717    16
CTC2_L_00135029-03
1 46586U 22258JL  26037.47791667  .00000000  00000+0  00000-0 0  9992
2 46586  90.0000 336.0000 0000000   0.0000 156.0000 13.03091717    17
CTC2_L_00135029-04
1 46587U 25879IY  26037.47791667  .00000000  00000+0  00000-0 0  9995
2 46587  90.0000 336.0000 0000000   0.0000 246.0000 13.03091717    18
CTC2_L_00135030-01
1 46588U 24379LX  26037.47791667  .00000000  00000+0  00000-0 0  9990
2 46588  90.0000 348.0000 0000000   0.0000 348.0000 13.03091717    15
CTC2_L_00135030-02
1 46589U 24892BV  26037.47791667  .00000000  00000+0  00000-0 0  9991
2 46589  90.0000 348.0000 0000000   0.0000  78.0000 13.03091717    16
CTC2_L_00135030-03
1 46590U 25253FI  26037.47791667  .00000000  00000+0  00000-0 0  9995
2 46590  90.0000 348.0000 0000000   0.0000 168.0000 13.03091717    18
CTC2_L_00135030-04
1 46591U 24022AR  26037.47791667  .00000000  00000+0  00000-0 0  9999
2 46591  90.0000 348.0000 0000000   0.0000 258.0000 13.03091717    19
